PLEIADES 1A             
1 38012U 11076F   26187.33672811  .00000551  00000+0  12839-3 0  9990
2 38012  98.1967 262.1822 0001755  85.3321 349.3614 14.58544442774783
PLEIADES 1B             
1 39019U 12068A   26187.28785874  .00000418  00000+0  99777-4 0  9997
2 39019  98.1938 262.0766 0001655  83.0411 277.0976 14.58573425723638
